#dP2022  7  1 18  0  0.00000000      96 __u+U ITR00 EXT  IAC
## 2216 496800.00000000   900.00000000 59761 0.7500000000000
+  113   C06C08C09C10C11C12C13C14C16C19C20C21C22C23C24C25C26
+        C27C28C29C30C32C33C34C35C36C37C38C40C41C42C43C44C45
+        C46E01E02E03E04E05E07E08E09E10E11E12E13E14E15E18E19
+        E21E24E25E26E27E30E31E33E34E36G01G02G03G04G05G06G07
+        G09G10G11G12G13G14G15G16G17G18G19G20G21G22G23G24G25
+        G26G27G28G29G30G31G32J02J03R01R02R03R04R05R07R08R09
+        R11R12R13R14R15R17R18R19R20R21R24  0  0  0  0  0  0
++        10 11 11  9  9  9 10  8 11  8  8  8  9  8  9  8 10
++         7  8  9  9 10  7 10 10  8  7  8 10  7 11  8  9  9
++         8  8  8  8  7  9  7  9  7  8  7  8  8  8  9  8  8
++         8  8  7  8  9  9  8  8  8  7  9  8  8  9  7  8  8
++         8  8  7  7  7  7  7  7  8  6  8  8  8  7  8  8  8
++         8  8  9  7  8  7  7 10  9  9  7  9  9  8  8  7  9
++         8  7  9  8  9  8  9  9 10  6  8  0  0  0  0  0  0
%c M  cc GPS ccc cccc cccc cccc cccc ccccc ccccc ccccc ccccc
%c cc cc ccc ccc cccc cccc cccc cccc ccccc ccccc ccccc ccccc
%f  0.0000000  0.000000000  0.00000000000  0.000000000000000
%f  0.0000000  0.000000000  0.00000000000  0.000000000000000
%i    0    0    0    0      0      0      0      0         0
%i    0    0    0    0      0      0      0      0         0
/* IAC                                ULTRA-RAPID PREDICTION
/* S/V CLOCKS ARE ALIGNED TO GNSS TIME                      
/* G:C1WC2W R:C1PC2P E:C1XC5X C:C2IC6I J:C1CC2S             
/* PCV:IGS14_2196 OL/AL:FES2004  NONE     YN ORB:CoN CLK:CoN
*  2022 07 01 20 30  0.00000000
PC06 -16453.086521  36210.530211  13642.239199    304.834120
PC08  -8444.281671  19812.055310 -36273.863202    386.749808
PC09 -11264.326211  35037.305405  20484.094423   -936.709674
PC10   4194.885968  38517.797567  17491.715591    122.098930
PC11   6356.371692 -23732.142692  13257.838526    448.626337
PC12  17923.652822 -21008.714515  -3920.161874   -586.814480
PC13  -2838.614855  22038.695043 -35711.556963     11.822223
PC14  -4753.931474 -25546.150652  10111.327182    523.712268
PC16 -18273.379355  36132.520737  11480.573614    141.995337
PC19  11727.235916  25321.739470   -883.054933   -119.166120
PC20  -1419.143010  22584.431046 -16340.164231   -964.474431
PC21  14656.422368  -5958.883524  23004.660004   -594.073254
PC22  18632.934488  13597.810216  15730.070902   -963.063802
PC23 -25847.606967  -7360.939954  -7500.003950   -939.708364
PC24  11162.747411 -14408.215204 -21127.953511   -968.503836
PC25 -11970.265233 -15108.212394 -20188.604558   -713.771216
PC26  25092.519153  -6238.591519 -10462.762559    715.583032
PC27 -20395.240245  14813.110730  11936.977181    747.650552
PC28 -16675.166071  -2940.355374  22180.958851     85.063620
PC29   3452.308883  19697.738411 -19474.878286    575.954156
PC30 -12042.261546  24736.853845  -4622.995052    500.602551
PC32 -14617.352225   6050.910659 -22972.686343   -973.561704
PC33 -11782.054282 -25263.424831   1012.265372    -64.986946
PC34  11388.523428 -24865.319435   5583.980989   -368.337863
PC35  16277.549806   3579.405112 -22399.981714    346.344373
PC36  11005.836629  15516.781331  20446.218678   -971.728569
PC37 -25820.564272   4895.193461   9432.756298   -912.721654
PC38 -17113.765870  20131.937768 -32880.147395      7.124496
PC40  -5275.258036  32820.431742  26044.950282    282.010888
PC41 -18634.299798 -13985.846968 -15303.594006    -46.144934
PC42   2344.969230 -21939.934321  17112.935688   -956.093043
PC43  -2833.333319 -20232.303576  19004.753678      0.505476
PC44  19970.989540 -15323.779259 -12093.678643    710.365594
PC45  25973.395739   7140.970114   7263.400572    797.968144
PC46  -9462.364376  14776.417857  21714.778788   -409.037791
PE01 -25315.663872 -15130.097648   2528.888738   -506.967129
PE02  25355.461827  15022.636901  -2691.431905    309.225619
PE03  15053.240640  12060.333200  22459.536180   -574.621147
PE04 -16483.564752  10226.461664 -22349.364930  -1062.189029
PE05   4734.869289  27687.080900   9353.431355   -166.959007
PE07   8191.811030 -26975.891857   9008.543027   -683.644585
PE08  16289.641228 -10484.455798  22381.443165   -556.287842
PE09  -8021.091878  27043.651035  -8994.056442   -572.852346
PE10 -23919.350620  16357.447023  -6068.189396   -523.458755
PE11 -16384.577091  19269.223307 -15382.350131   3159.165538
PE12 -27278.657190  10876.606959   3631.191544    -39.895890
PE13  17019.276758 -19162.321296  14809.232388    429.578040
PE14  19093.964482   6832.813942 -24284.142593  -1791.530496
PE15  27278.539990 -10847.698394  -3813.972931    735.906855
PE18 -16796.445170   7978.235531  17193.900600  -1264.048081
PE19 -14014.409362 -14675.144921 -21539.784259  -5213.828033
PE21 -14313.625891 -21520.369362 -14423.099647   -743.450282
PE24  -6895.920388  15414.005667  24300.752565   -701.479630
PE25  14058.786037  21539.914095  14656.705827   -579.585997
PE26  -4196.287514 -15902.535204  24605.046191  -1327.572348
PE27   5641.647702 -16074.921097 -24200.195546   -335.000822
PE30  22626.449123   -374.537395 -19081.374249   -637.863069
PE31 -22100.075298   1229.436309  19662.793938   -499.217738
PE33 -21395.329617  -3820.743372  20087.703640   -455.117472
PE34  21531.415381   3652.334096 -19990.147233   -524.965006
PE36   3159.727257  16164.015299 -24599.326025   -396.108066
PG01   -374.236290  15407.843805 -21887.252893    329.900774
PG02  19842.620093 -15754.506658   8880.223698   -652.047752
PG03   8320.083883  20368.791027 -15075.642017   -295.328694
PG04   -608.455618  25624.078814   6791.244855   -150.873091
PG05   5673.245745 -14448.304029  21366.015612    -87.567222
PG06  25508.482406  -5522.122880  -5093.053067    366.907368
PG07  16381.052891   8939.793197  19489.202425    320.617378
PG09   7797.821027  20196.382750  15298.035063   -323.218097
PG10 -22553.065710  -9737.529770 -10324.280104   -476.192908
PG11  21999.071784 -12493.155272   8042.160271    -12.026278
PG12  -3904.383513 -20186.024860 -17141.948591   -239.790822
PG13  13168.276820 -21126.473888   8843.731759    340.301779
PG14  22247.945301  11239.995999  -9313.981989   -112.011147
PG15   1880.072310 -26287.841449    896.532999    -48.811649
PG16 -11850.409583   9185.702236  21668.685280   -512.732624
PG17  14085.261025   3972.933689 -21732.096566    631.794134
PG18 -15869.796376  -8654.728220  19490.969727    125.988121
PG19  16052.562934  -5198.330467 -20709.676000    178.085861
PG20  16150.986031  -7037.636919  19813.413532    506.762956
PG21 -10151.243005  17283.266258 -16429.593336    161.245899
PG22 -15944.934044   8616.041315 -18937.200201    285.151004
PG23 -20988.283273 -16373.206630   -341.721413    -30.912304
PG24   3756.309925 -17683.007898 -19633.013225    207.670709
PG25 -16392.870708 -19983.337733  -6988.670671    344.116193
PG26 -19580.327763   1775.426266  17910.745051    215.745319
PG27 -12406.462650  19139.597770  13055.801479    219.230132
PG28  20025.401098   4380.158275 -16251.040435    329.125699
PG29  -5942.954165 -20212.601943  16074.998215   -529.484719
PG30  23470.144187   1769.456927  12641.710328   -532.939519
PG31 -25842.882698   6685.040231  -2683.658934   -184.043757
PG32 -15239.597098   -817.354121 -21580.176969   -165.256526
PJ02 -27211.177886  20910.519524  29499.593965     -1.200893
PJ03 -32685.860806  26544.099123   3981.107137     -3.214219
PR01   2550.796344  23689.672481  -9128.351295     10.808277
PR02  10593.291226  20728.785753  10403.626646    522.919594
PR03  12161.236426   5216.435365  21842.734764     59.461009
PR04   6744.781698 -12761.399020  21063.248057    149.134564
PR05  -2174.196986 -23895.785713   8700.957021     95.549356
PR07 -12039.515178  -4558.220756 -21989.134332     37.239425
PR08  -6702.095127  12934.346457 -20874.075194    -65.972224
PR09 -18929.358215 -11077.071011 -12936.172795     63.511339
PR11 -17182.535298   4715.006581  18259.315749     34.579838
PR12   1620.699568  11608.827874  22683.739558     19.133024
PR13  17960.528990  11330.229774  14124.869214    -24.158378
PR14  24844.151066   4214.342248  -4015.122345     25.046602
PR15  16555.163961  -5032.053617 -18720.804917     94.960808
PR17  17222.761302  -5764.246760 -17890.690934    539.786579
PR18  18997.080029 -16762.622800  -3171.235387    122.152157
PR19  12151.984685 -18801.942752  12212.363640   -194.725868
PR20  -4807.828882  -9563.324856  23155.780735    -73.729016
PR21 -17827.378112   7002.520047  16855.106163   -313.962773
PR24   5970.709102   9241.834835 -23004.761320    101.450876
EOF
